start=new Date('2022-08-19T00:00:00.000Z').valueOf();
sats=[{"EPHEMERIS_TYPE":"0","PERIAPSIS":"546.233","TLE_LINE1":"1 45732U 20038C   22230.49888030  .00001610  00000-0  12698-3 0  9990","SITE":"AFETR","EPOCH":"2022-08-18T11:58:23.257920","COUNTRY_CODE":"US","MEAN_MOTION":"15.06400615","RCS_SIZE":"LARGE","APOAPSIS":"548.190","PERIOD":"95.592","OBJECT_NAME":"STARLINK-1466","MEAN_MOTION_DOT":"0.00001610","ECCENTRICITY":"0.00014130","MEAN_MOTION_DDOT":"0.0000000000000","ELEMENT_SET_NO":"999","TIME_SYSTEM":"UTC","REF_FRAME":"TEME","OBJECT_TYPE":"PAYLOAD","REV_AT_EPOCH":"12149","ARG_OF_PERICENTER":"54.7786","LAUNCH_DATE":"2020-06-13","CENTER_NAME":"EARTH","MEAN_ELEMENT_THEORY":"SGP4","CLASSIFICATION_TYPE":"U","INCLINATION":"53.0557","TLE_LINE2":"2 45732  53.0557 308.9164 0001413  54.7786 305.3335 15.06400615121492","GP_ID":"210447566","SEMIMAJOR_AXIS":"6925.347","BSTAR":"0.00012698000000","RA_OF_ASC_NODE":"308.9164","FILE":"3539392","NORAD_CAT_ID":"45732","OBJECT_ID":"2020-038C","DECAY_DATE":null,"MEAN_ANOMALY":"305.3335"},{"NORAD_CAT_ID":"45733","OBJECT_ID":"2020-038D","DECAY_DATE":null,"MEAN_ANOMALY":"280.1682","INCLINATION":"53.0530","TLE_LINE2":"2 45733  53.0530 308.8359 0001202  79.9443 280.1682 15.07017809120375","GP_ID":"210438946","SEMIMAJOR_AXIS":"6923.456","BSTAR":"0.00102670000000","RA_OF_ASC_NODE":"308.8359","FILE":"3539281","MEAN_ELEMENT_THEORY":"SGP4","CLASSIFICATION_TYPE":"U","OBJECT_TYPE":"PAYLOAD","REV_AT_EPOCH":"12037","LAUNCH_DATE":"2020-06-13","ARG_OF_PERICENTER":"79.9443","CENTER_NAME":"EARTH","MEAN_MOTION_DDOT":"0.0000000000000","ELEMENT_SET_NO":"999","TIME_SYSTEM":"UTC","REF_FRAME":"TEME","MEAN_MOTION":"15.07017809","RCS_SIZE":"LARGE","APOAPSIS":"546.153","MEAN_MOTION_DOT":"0.00015301","PERIOD":"95.553","OBJECT_NAME":"STARLINK-1467","ECCENTRICITY":"0.00012020","TLE_LINE1":"1 45733U 20038D   22230.50037839  .00015301  00000-0  10267-2 0  9997","SITE":"AFETR","EPOCH":"2022-08-18T12:00:32.692896","COUNTRY_CODE":"US","EPHEMERIS_TYPE":"0","PERIAPSIS":"544.489"},{"OBJECT_TYPE":"PAYLOAD","ARG_OF_PERICENTER":"80.5824","LAUNCH_DATE":"2020-06-13","CENTER_NAME":"EARTH","REV_AT_EPOCH":"12038","MEAN_ELEMENT_THEORY":"SGP4","CLASSIFICATION_TYPE":"U","SEMIMAJOR_AXIS":"6925.313","GP_ID":"210472425","BSTAR":"0.00033929000000","INCLINATION":"53.0543","TLE_LINE2":"2 45734  53.0543 308.6736 0001331  80.5824 279.5316 15.06411590120382","RA_OF_ASC_NODE":"308.6736","FILE":"3539615","NORAD_CAT_ID":"45734","OBJECT_ID":"2020-038E","DECAY_DATE":null,"MEAN_ANOMALY":"279.5316","EPHEMERIS_TYPE":"0","PERIAPSIS":"546.256","TLE_LINE1":"1 45734U 20038E   22230.55416613  .00004777  00000-0  33929-3 0  9990","SITE":"AFETR","EPOCH":"2022-08-18T13:17:59.953632","COUNTRY_CODE":"US","APOAPSIS":"548.100","MEAN_MOTION":"15.06411590","RCS_SIZE":"LARGE","MEAN_MOTION_DOT":"0.00004777","PERIOD":"95.591","ECCENTRICITY":"0.00013310","OBJECT_NAME":"STARLINK-1468","ELEMENT_SET_NO":"999","TIME_SYSTEM":"UTC","MEAN_MOTION_DDOT":"0.0000000000000","REF_FRAME":"TEME"},{"MEAN_ANOMALY":"251.8447","DECAY_DATE":null,"OBJECT_ID":"2020-038F","NORAD_CAT_ID":"45735","RA_OF_ASC_NODE":"309.1095","FILE":"3539400","BSTAR":"0.00000887480000","GP_ID":"210448538","SEMIMAJOR_AXIS":"6925.365","TLE_LINE2":"2 45735  53.0547 309.1095 0001527 108.2708 251.8447 15.06394678121484","INCLINATION":"53.0547","CLASSIFICATION_TYPE":"U","MEAN_ELEMENT_THEORY":"SGP4","CENTER_NAME":"EARTH","ARG_OF_PERICENTER":"108.2708","LAUNCH_DATE":"2020-06-13","REV_AT_EPOCH":"12148","OBJECT_TYPE":"PAYLOAD","REF_FRAME":"TEME","TIME_SYSTEM":"UTC","ELEMENT_SET_NO":"999","MEAN_MOTION_DDOT":"0.0000000000000","OBJECT_NAME":"STARLINK-1471","PERIOD":"95.592","MEAN_MOTION_DOT":"-0.00000149","ECCENTRICITY":"0.00015270","APOAPSIS":"548.287","MEAN_MOTION":"15.06394678","RCS_SIZE":"LARGE","COUNTRY_CODE":"US","EPOCH":"2022-08-18T11:00:00.688320","SITE":"AFETR","TLE_LINE1":"1 45735U 20038F   22230.45834130 -.00000149  00000-0  88748-5 0  9999","PERIAPSIS":"546.172","EPHEMERIS_TYPE":"0"},{"RA_OF_ASC_NODE":"266.0285","FILE":"3539615","BSTAR":"0.00024172000000","SEMIMAJOR_AXIS":"6827.562","GP_ID":"210473425","TLE_LINE2":"2 45736  53.0607 266.0285 0002903 106.1551 253.9771 15.38878336120997","INCLINATION":"53.0607","MEAN_ANOMALY":"253.9771","DECAY_DATE":null,"OBJECT_ID":"2020-038G","NORAD_CAT_ID":"45736","CENTER_NAME":"EARTH","LAUNCH_DATE":"2020-06-13","ARG_OF_PERICENTER":"106.1551","REV_AT_EPOCH":"12099","OBJECT_TYPE":"PAYLOAD","CLASSIFICATION_TYPE":"U","MEAN_ELEMENT_THEORY":"SGP4","ECCENTRICITY":"0.00029030","PERIOD":"93.575","MEAN_MOTION_DOT":"0.00009052","OBJECT_NAME":"STARLINK-1472","APOAPSIS":"451.409","RCS_SIZE":"LARGE","MEAN_MOTION":"15.38878336","REF_FRAME":"TEME","TIME_SYSTEM":"UTC","ELEMENT_SET_NO":"999","MEAN_MOTION_DDOT":"0.0000000000000","PERIAPSIS":"447.445","EPHEMERIS_TYPE":"0","COUNTRY_CODE":"US","EPOCH":"2022-08-18T14:15:15.574464","SITE":"AFETR","TLE_LINE1":"1 45736U 20038G   22230.59393026  .00009052  00000-0  24172-3 0  9999"},{"OBJECT_TYPE":"PAYLOAD","REV_AT_EPOCH":"12040","ARG_OF_PERICENTER":"90.0045","LAUNCH_DATE":"2020-06-13","CENTER_NAME":"EARTH","MEAN_ELEMENT_THEORY":"SGP4","CLASSIFICATION_TYPE":"U","INCLINATION":"53.0549","TLE_LINE2":"2 45738  53.0549 307.9665 0001235  90.0045 270.1085 15.06395912120401","SEMIMAJOR_AXIS":"6925.361","GP_ID":"210471677","BSTAR":"0.00006611200000","FILE":"3539615","RA_OF_ASC_NODE":"307.9665","NORAD_CAT_ID":"45738","OBJECT_ID":"2020-038J","DECAY_DATE":null,"MEAN_ANOMALY":"270.1085","EPHEMERIS_TYPE":"0","PERIAPSIS":"546.371","TLE_LINE1":"1 45738U 20038J   22230.71266955  .00000703  00000-0  66112-4 0  9990","SITE":"AFETR","EPOCH":"2022-08-18T17:06:14.649120","COUNTRY_CODE":"US","RCS_SIZE":"LARGE","MEAN_MOTION":"15.06395912","APOAPSIS":"548.081","MEAN_MOTION_DOT":"0.00000703","PERIOD":"95.592","ECCENTRICITY":"0.00012350","OBJECT_NAME":"STARLINK-1474","MEAN_MOTION_DDOT":"0.0000000000000","ELEMENT_SET_NO":"999","TIME_SYSTEM":"UTC","REF_FRAME":"TEME"},{"CLASSIFICATION_TYPE":"U","MEAN_ELEMENT_THEORY":"SGP4","CENTER_NAME":"EARTH","ARG_OF_PERICENTER":"65.7889","LAUNCH_DATE":"2020-06-13","REV_AT_EPOCH":"12093","OBJECT_TYPE":"PAYLOAD","MEAN_ANOMALY":"294.3276","DECAY_DATE":null,"OBJECT_ID":"2020-038K","NORAD_CAT_ID":"45739","FILE":"3539281","RA_OF_ASC_NODE":"268.7778","BSTAR":"0.00014354000000","SEMIMAJOR_AXIS":"6925.343","GP_ID":"210439198","TLE_LINE2":"2 45739  53.0541 268.7778 0001686  65.7889 294.3276 15.06401784120931","INCLINATION":"53.0541","COUNTRY_CODE":"US","EPOCH":"2022-08-18T12:39:29.845728","SITE":"AFETR","TLE_LINE1":"1 45739U 20038K   22230.52742877  .00001857  00000-0  14354-3 0  9993","PERIAPSIS":"546.040","EPHEMERIS_TYPE":"0","REF_FRAME":"TEME","TIME_SYSTEM":"UTC","ELEMENT_SET_NO":"999","MEAN_MOTION_DDOT":"0.0000000000000","MEAN_MOTION_DOT":"0.00001857","PERIOD":"95.592","OBJECT_NAME":"STARLINK-1475","ECCENTRICITY":"0.00016860","APOAPSIS":"548.376","MEAN_MOTION":"15.06401784","RCS_SIZE":"LARGE"},{"OBJECT_NAME":"STARLINK-1479","PERIOD":"95.592","MEAN_MOTION_DOT":"-0.00000109","ECCENTRICITY":"0.00013370","APOAPSIS":"548.153","MEAN_MOTION":"15.06395431","RCS_SIZE":"LARGE","REF_FRAME":"TEME","TIME_SYSTEM":"UTC","ELEMENT_SET_NO":"999","MEAN_MOTION_DDOT":"0.0000000000000","PERIAPSIS":"546.302","EPHEMERIS_TYPE":"0","COUNTRY_CODE":"US","EPOCH":"2022-08-18T10:54:42.114240","SITE":"AFETR","TLE_LINE1":"1 45740U 20038L   22230.45465410 -.00000109  00000-0  11574-4 0  9994","RA_OF_ASC_NODE":"309.1211","FILE":"3539281","BSTAR":"0.00001157400000","SEMIMAJOR_AXIS":"6925.363","GP_ID":"210439928","TLE_LINE2":"2 45740  53.0558 309.1211 0001337  94.2062 265.9080 15.06395431120361","INCLINATION":"53.0558","MEAN_ANOMALY":"265.9080","DECAY_DATE":null,"OBJECT_ID":"2020-038L","NORAD_CAT_ID":"45740","CENTER_NAME":"EARTH","LAUNCH_DATE":"2020-06-13","ARG_OF_PERICENTER":"94.2062","REV_AT_EPOCH":"12036","OBJECT_TYPE":"PAYLOAD","CLASSIFICATION_TYPE":"U","MEAN_ELEMENT_THEORY":"SGP4"},{"ELEMENT_SET_NO":"999","TIME_SYSTEM":"UTC","MEAN_MOTION_DDOT":"0.0000000000000","REF_FRAME":"TEME","APOAPSIS":"548.350","RCS_SIZE":"LARGE","MEAN_MOTION":"15.06399588","MEAN_MOTION_DOT":"0.00000364","PERIOD":"95.592","ECCENTRICITY":"0.00016390","OBJECT_NAME":"STARLINK-1480","TLE_LINE1":"1 45741U 20038M   22230.49151079  .00000364  00000-0  43304-4 0  9990","SITE":"AFETR","EPOCH":"2022-08-18T11:47:46.532256","COUNTRY_CODE":"US","EPHEMERIS_TYPE":"0","PERIAPSIS":"546.080","NORAD_CAT_ID":"45741","OBJECT_ID":"2020-038M","DECAY_DATE":null,"MEAN_ANOMALY":"262.3722","GP_ID":"210448565","SEMIMAJOR_AXIS":"6925.350","BSTAR":"0.00004330400000","INCLINATION":"53.0552","TLE_LINE2":"2 45741  53.0552 308.9509 0001639  97.7453 262.3722 15.06399588121496","FILE":"3539402","RA_OF_ASC_NODE":"308.9509","MEAN_ELEMENT_THEORY":"SGP4","CLASSIFICATION_TYPE":"U","OBJECT_TYPE":"PAYLOAD","LAUNCH_DATE":"2020-06-13","ARG_OF_PERICENTER":"97.7453","CENTER_NAME":"EARTH","REV_AT_EPOCH":"12149"},{"PERIAPSIS":"546.455","EPHEMERIS_TYPE":"0","SITE":"AFETR","TLE_LINE1":"1 45742U 20038N   22230.48414077  .00000326  00000-0  40794-4 0  9998","COUNTRY_CODE":"US","EPOCH":"2022-08-18T11:37:09.762528","MEAN_MOTION":"15.06398629","RCS_SIZE":"LARGE","APOAPSIS":"547.981","OBJECT_NAME":"STARLINK-1481","PERIOD":"95.592","MEAN_MOTION_DOT":"0.00000326","ECCENTRICITY":"0.00011020","MEAN_MOTION_DDOT":"0.0000000000000","TIME_SYSTEM":"UTC","ELEMENT_SET_NO":"999","REF_FRAME":"TEME","OBJECT_TYPE":"PAYLOAD","REV_AT_EPOCH":"12148","CENTER_NAME":"EARTH","ARG_OF_PERICENTER":"100.9449","LAUNCH_DATE":"2020-06-13","MEAN_ELEMENT_THEORY":"SGP4","CLASSIFICATION_TYPE":"U","TLE_LINE2":"2 45742  53.0554 308.9718 0001102 100.9449 259.1664 15.06398629121481","INCLINATION":"53.0554","BSTAR":"0.00004079400000","GP_ID":"210448571","SEMIMAJOR_AXIS":"6925.353","FILE":"3539402","RA_OF_ASC_NODE":"308.9718","OBJECT_ID":"2020-038N","NORAD_CAT_ID":"45742","MEAN_ANOMALY":"259.1664","DECAY_DATE":null}];
